IRIDIUM 26              
1 24903U 97043A   25208.22099620  .00000363  00000+0  11559-3 0  9993
2 24903  86.3936  93.8041 0002023  81.1810 278.9617 14.37169812462965
IRIDIUM 22              
1 24907U 97043E   25207.97489356  .00000323  00000+0  10465-3 0  9998
2 24907  86.3945  97.4828 0002067  86.6071 273.5362 14.35978920462480
DUMMY MASS 1            
1 24925U 97048A   25208.18802604  .00000428  00000+0  44603-4 0  9990
2 24925  86.3357 116.8402 0007285  24.3242 335.8325 14.87012895511312
DUMMY MASS 2            
1 24926U 97048B   25207.75301370  .00000418  00000+0  43793-4 0  9995
2 24926  86.3360 118.6559 0008543  34.0208 326.1563 14.86764394510782
IRIDIUM 29              
1 24944U 97051A   25207.77467855  .00000410  00000+0  13299-3 0  9991
2 24944  86.3981 127.3008 0002311  89.7082 270.4380 14.36493743458951
IRIDIUM 33              
1 24946U 97051C   25207.79996973  .00000316  00000+0  10432-3 0  9994
2 24946  86.3897 126.5538 0006452 323.0636  37.0115 14.34912789458426
IRIDIUM 28              
1 24948U 97051E   25207.86246366  .00000351  00000+0  11092-3 0  9990
2 24948  86.3984 124.7574 0001923  73.3271 286.8137 14.37408408459546
IRIDIUM 36              
1 24967U 97056C   25207.88921198  .00000401  00000+0  12693-3 0  9995
2 24967  86.4014 156.3333 0002004  87.9373 272.2055 14.37634776457928
